NORAD_CAT_ID,OBJECT_NAME,OBJECT_TYPE,EPOCH,MEAN_MOTION,ECCENTRICITY,INCLINATION,RA_OF_ASC_NODE,ARG_OF_PERICENTER,MEAN_ANOMALY,BSTAR,MEAN_MOTION_DOT,MEAN_MOTION_DDOT,TLE_LINE0,TLE_LINE1,TLE_LINE2,SEMIMAJOR_AXIS,PERIOD,APOGEE,PERIGEE,DECAYED
49138.0,STARLINK-3058,PAYLOAD,2024-02-05 10:43:59,14.98331591,0.0002858,69.9993,58.8685,269.6311,90.452,5.4512e-05,5.58e-06,0.0,0 STARLINK-3058,1 49138U 21082J   24036.44721843  .00000558  00000-0  54512-4 0  9995,2 49138  69.9993  58.8685 0002858 269.6311  90.4520 14.98331591131653,6950.188,96.107,574.039,570.067,0.0
49138.0,STARLINK-3058,PAYLOAD,2024-02-06 04:21:26,14.98344534,0.0003563,69.9994,57.0169,279.318,80.7576,0.00012544,1.405e-05,0.0,0 STARLINK-3058,1 49138U 21082J   24037.18155867  .00001405  00000-0  12544-3 0  9994,2 49138  69.9994  57.0169 0003563 279.3180  80.7576 14.98344534131764,6950.148,96.106,574.489,569.537,0.0
49138.0,STARLINK-3058,PAYLOAD,2024-02-06 10:46:00,14.98328891,0.0002975,69.9993,56.3432,269.4097,90.6721,-6.6492e-05,-8.86e-06,0.0,0 STARLINK-3058,1 49138U 21082J   24037.44861170 -.00000886  00000-0 -66492-4 0  9990,2 49138  69.9993  56.3432 0002975 269.4097  90.6721 14.98328891131806,6950.196,96.107,574.129,569.994,0.0
49138.0,STARLINK-3058,PAYLOAD,2024-02-07 04:23:29,14.98315118,0.0002944,70.0001,54.4932,265.8931,94.1892,-0.00015111,-1.895e-05,0.0,0 STARLINK-3058,1 49138U 21082J   24038.18298520 -.00001895  00000-0 -15111-3 0  9997,2 49138  70.0001  54.4932 0002944 265.8931  94.1892 14.98315118131914,6950.239,96.108,574.15,570.058,0.0
49138.0,STARLINK-3058,PAYLOAD,2024-02-07 10:48:02,14.98315937,0.0002773,69.9999,53.8184,265.1663,94.918,-0.00016982,-2.118e-05,0.0,0 STARLINK-3058,1 49138U 21082J   24038.45002742 -.00002118  00000-0 -16982-3 0  9992,2 49138  69.9999  53.8184 0002773 265.1663  94.9180 14.98315937131955,6950.236,96.108,574.029,570.174,0.0
49138.0,STARLINK-3058,PAYLOAD,2024-02-08 04:25:30,14.98318206,0.0002845,69.9998,51.9669,264.2343,95.8492,6.8931e-05,7.29e-06,0.0,0 STARLINK-3058,1 49138U 21082J   24039.18438026  .00000729  00000-0  68931-4 0  9997,2 49138  69.9998  51.9669 0002845 264.2343  95.8492 14.98318206132067,6950.229,96.108,574.072,570.117,0.0
49138.0,STARLINK-3058,PAYLOAD,2024-02-08 14:02:18,14.9832582,0.0002902,69.9997,50.9572,264.3619,95.7209,0.00015491,1.756e-05,0.0,0 STARLINK-3058,1 49138U 21082J   24039.58493650  .00001756  00000-0  15491-3 0  9998,2 49138  69.9997  50.9572 0002902 264.3619  95.7209 14.98325820132121,6950.206,96.107,574.088,570.054,0.0
49138.0,STARLINK-3058,PAYLOAD,2024-02-09 10:52:03,14.98339754,0.0002611,69.9997,48.7687,258.9169,101.1697,8.1087e-05,8.75e-06,0.0,0 STARLINK-3058,1 49138U 21082J   24040.45281325  .00000875  00000-0  81087-4 0  9996,2 49138  69.9997  48.7687 0002611 258.9169 101.1697 14.98339754132257,6950.163,96.106,573.842,570.213,0.0
49138.0,STARLINK-3058,PAYLOAD,2024-02-10 02:53:24,14.98328521,0.0002535,70.0004,47.085,263.548,96.539,9.1532e-05,9.99e-06,0.0,0 STARLINK-3058,1 49138U 21082J   24041.12042232  .00000999  00000-0  91532-4 0  9996,2 49138  70.0004  47.0850 0002535 263.5480  96.5390 14.98328521132354,6950.197,96.107,573.824,570.301,0.0
49138.0,STARLINK-3058,PAYLOAD,2024-02-10 09:17:56,14.98328265,0.0002516,70.0006,46.4123,258.1088,101.9789,7.3031e-05,7.79e-06,0.0,0 STARLINK-3058,1 49138U 21082J   24041.38746307  .00000779  00000-0  73031-4 0  9998,2 49138  70.0006  46.4123 0002516 258.1088 101.9789 14.98328265132397,6950.198,96.107,573.812,570.315,0.0
49138.0,STARLINK-3058,PAYLOAD,2024-02-11 02:55:25,14.98334042,0.000255,70.0006,44.5609,257.0454,103.0421,-5.7756e-06,-1.62e-06,0.0,0 STARLINK-3058,1 49138U 21082J   24042.12181995 -.00000162  00000-0 -57756-5 0  9992,2 49138  70.0006  44.5609 0002550 257.0454 103.0421 14.98334042132507,6950.18,96.107,573.818,570.273,0.0
49138.0,STARLINK-3058,PAYLOAD,2024-02-11 10:56:05,14.9833381,0.0002537,70.0008,43.7195,257.1864,102.9011,-8.2749e-06,-1.92e-06,0.0,0 STARLINK-3058,1 49138U 21082J   24042.45561917 -.00000192  00000-0 -82749-5 0  9997,2 49138  70.0008  43.7195 0002537 257.1864 102.9011 14.98333810132551,6950.181,96.107,573.809,570.283,0.0
49138.0,STARLINK-3058,PAYLOAD,2024-02-12 02:57:25,14.98333756,0.0002609,70.0008,42.0373,256.7843,103.3025,6.2422e-05,6.52e-06,0.0,0 STARLINK-3058,1 49138U 21082J   24043.12321537  .00000652  00000-0  62422-4 0  9998,2 49138  70.0008  42.0373 0002609 256.7843 103.3025 14.98333756132653,6950.181,96.107,573.86,570.233,0.0
49138.0,STARLINK-3058,PAYLOAD,2024-02-12 09:21:58,14.98334642,0.0002631,70.0008,41.3636,259.8724,100.2138,6.9907e-05,7.41e-06,0.0,0 STARLINK-3058,1 49138U 21082J   24043.39025469  .00000741  00000-0  69907-4 0  9996,2 49138  70.0008  41.3636 0002631 259.8724 100.2138 14.98334642132694,6950.179,96.107,573.872,570.215,0.0
49138.0,STARLINK-3058,PAYLOAD,2024-02-13 02:59:27,14.9832771,0.0002564,70.0012,39.5125,256.3091,103.7782,-1.3034e-06,-1.08e-06,0.0,0 STARLINK-3058,1 49138U 21082J   24044.12462029 -.00000108  00000-0 -13034-5 0  9995,2 49138  70.0012  39.5125 0002564 256.3091 103.7782 14.98327710132809,6950.2,96.107,573.847,570.283,0.0
49138.0,STARLINK-3058,PAYLOAD,2024-02-13 09:23:59,14.98328463,0.0002553,70.0013,38.8392,255.9385,104.1491,7.3679e-06,-5e-08,0.0,0 STARLINK-3058,1 49138U 21082J   24044.39166027 -.00000005  00000-0  73679-5 0  9999,2 49138  70.0013  38.8392 0002553 255.9385 104.1491 14.98328463132849,6950.198,96.107,573.837,570.288,0.0
49138.0,STARLINK-3058,PAYLOAD,2024-02-13 17:24:39,14.98333455,0.0002831,70.0005,37.9941,266.9912,93.0923,-2.8943e-05,-4.38e-06,0.0,0 STARLINK-3058,1 49138U 21082J   24044.72545811 -.00000438  00000-0 -28943-4 0  9992,2 49138  70.0005  37.9941 0002831 266.9912  93.0923 14.98333455132895,6950.182,96.107,574.015,570.08,0.0
49138.0,STARLINK-3058,PAYLOAD,2024-02-14 04:37:35,14.9832936,0.0002485,70.0008,36.816,264.2238,95.8637,9.8369e-05,1.081e-05,0.0,0 STARLINK-3058,1 49138U 21082J   24045.19277740  .00001081  00000-0  98369-4 0  9999,2 49138  70.0008  36.8160 0002485 264.2238  95.8637 14.98329360132966,6950.195,96.107,573.787,570.333,0.0
49138.0,STARLINK-3058,PAYLOAD,2024-02-14 09:25:59,14.98332821,0.0002664,70.0007,36.3113,268.292,91.7933,8.8691e-05,9.66e-06,0.0,0 STARLINK-3058,1 49138U 21082J   24045.39305515  .00000966  00000-0  88691-4 0  9991,2 49138  70.0007  36.3113 0002664 268.2920  91.7933 14.98332821132992,6950.184,96.107,573.901,570.198,0.0
49138.0,STARLINK-3058,PAYLOAD,2024-02-15 09:28:01,14.98326836,0.0002682,70.0008,33.7877,263.6777,96.4077,3.4295e-05,3.16e-06,0.0,0 STARLINK-3058,1 49138U 21082J   24046.39446070  .00000316  00000-0  34295-4 0  9994,2 49138  70.0008  33.7877 0002682 263.6777  96.4077 14.98326836133148,6950.203,96.107,573.932,570.204,0.0
49138.0,STARLINK-3058,PAYLOAD,2024-02-15 15:52:34,14.98292288,0.0002509,70.0008,33.1144,271.062,89.0251,0.0006775,7.992e-05,0.0,0 STARLINK-3058,1 49138U 21082J   24046.66151177  .00007992  00000-0  67750-3 0  9993,2 49138  70.0008  33.1144 0002509 271.0620  89.0251 14.98292288133186,6950.31,96.109,573.918,570.431,0.0
49138.0,STARLINK-3058,PAYLOAD,2024-02-15 22:17:05,14.98330686,0.0002819,70.0005,32.44,270.6199,89.4637,1.6161e-05,1e-06,0.0,0 STARLINK-3058,1 49138U 21082J   24046.92853906  .00000100  00000-0  16161-4 0  9996,2 49138  70.0005  32.4400 0002819 270.6199  89.4637 14.98330686133222,6950.191,96.107,574.015,570.097,0.0
49138.0,STARLINK-3058,PAYLOAD,2024-02-16 04:41:37,14.98335335,0.0002617,70.0004,31.7668,272.1762,87.9097,-2.6152e-05,-4.05e-06,0.0,0 STARLINK-3058,1 49138U 21082J   24047.19557726 -.00000405  00000-0 -26152-4 0  9998,2 49138  70.0004  31.7668 0002617 272.1762  87.9097 14.98335335133261,6950.176,96.107,573.86,570.223,0.0
49138.0,STARLINK-3058,PAYLOAD,2024-02-16 07:53:53,14.98350836,0.000256,70.0005,31.43,269.0239,91.0626,-0.00019748,-2.45e-05,0.0,0 STARLINK-3058,1 49138U 21082J   24047.32909032 -.00002450  00000-0 -19748-3 0  9998,2 49138  70.0005  31.4300 0002560 269.0239  91.0626 14.98350836133282,6950.128,96.106,573.773,570.214,0.0
49138.0,STARLINK-3058,PAYLOAD,2024-02-17 04:43:39,14.98325227,0.0002547,70.0014,29.2418,265.4885,94.5983,7.5748e-05,8.11e-06,0.0,0 STARLINK-3058,1 49138U 21082J   24048.19697990  .00000811  00000-0  75748-4 0  9991,2 49138  70.0014  29.2418 0002547 265.4885  94.5983 14.98325227133414,6950.208,96.107,573.843,570.302,0.0
49138.0,STARLINK-3058,PAYLOAD,2024-02-17 07:55:55,14.98325328,0.0002572,70.0013,28.9053,262.828,97.2587,6.1992e-05,6.47e-06,0.0,0 STARLINK-3058,1 49138U 21082J   24048.33050067  .00000647  00000-0  61992-4 0  9998,2 49138  70.0013  28.9053 0002572 262.8280  97.2587 14.98325328133436,6950.207,96.107,573.86,570.285,0.0
49138.0,STARLINK-3058,PAYLOAD,2024-02-17 15:56:35,14.9833054,0.0002873,70.0009,28.0648,269.5611,90.5219,3.6459e-05,3.42e-06,0.0,0 STARLINK-3058,1 49138U 21082J   24048.66429798  .00000342  00000-0  36459-4 0  9997,2 49138  70.0009  28.0648 0002873 269.5611  90.5219 14.98330540133483,6950.191,96.107,574.053,570.059,0.0
49138.0,STARLINK-3058,PAYLOAD,2024-02-18 04:45:39,14.98331061,0.0002922,70.0009,26.7186,271.0082,89.0742,4.753e-05,4.74e-06,0.0,0 STARLINK-3058,1 49138U 21082J   24049.19837721  .00000474  00000-0  47530-4 0  9993,2 49138  70.0009  26.7186 0002922 271.0082  89.0742 14.98331061133562,6950.19,96.107,574.085,570.024,0.0
49138.0,STARLINK-3058,PAYLOAD,2024-02-18 07:57:55,14.98332006,0.0003027,70.0011,26.3825,272.9837,87.0976,8.4339e-05,9.14e-06,0.0,0 STARLINK-3058,1 49138U 21082J   24049.33189588  .00000914  00000-0  84339-4 0  9997,2 49138  70.0011  26.3825 0003027 272.9837  87.0976 14.98332006133585,6950.187,96.107,574.156,569.948,0.0
49138.0,STARLINK-3058,PAYLOAD,2024-02-18 15:58:36,14.98328769,0.0002856,70.0012,25.5405,257.063,103.0211,8.1345e-05,8.78e-06,0.0,0 STARLINK-3058,1 49138U 21082J   24049.66569660  .00000878  00000-0  81345-4 0  9999,2 49138  70.0012  25.5405 0002856 257.0630 103.0211 14.98328769133633,6950.197,96.107,574.047,570.077,0.0
